{
  "type": "FeatureCollection",
  "features": [
    {
      "type": "Feature",
      "properties": {
        "norad_id": 66961,
        "name": "STARLINK-35761",
        "group": "last-30-days",
        "lat": -41.72171793054673,
        "lon": -20.163262378438663,
        "alt_km": 382.7428155005646,
        "timestamp": "2025-12-25T22:42:15.710822+00:00",
        "meta_object_name": "STARLINK-35761",
        "meta_object_id": "2025-288C",
        "meta_epoch": "2025-12-25T18:00:02.000160",
        "meta_mean_motion": 15.63389731,
        "meta_eccentricity": 0.0001223,
        "meta_inclination": 43.0002,
        "meta_ra_of_asc_node": 87.8958,
        "meta_arg_of_pericenter": 276.2569,
        "meta_mean_anomaly": 317.0899,
        "meta_ephemeris_type": 0,
        "meta_classification_type": "U",
        "meta_norad_cat_id": 66961,
        "meta_element_set_no": 999,
        "meta_rev_at_epoch": 392,
        "meta_bstar": -0.023549,
        "meta_mean_motion_dot": -0.01966167,
        "meta_mean_motion_ddot": 0,
        "tle_line1": "1 66961U 25288C   25359.75002315 -.01966167  00000+0 -23549-1 0  9991",
        "tle_line2": "2 66961  43.0002  87.8958 0001223 276.2569 317.0899 15.63389731  3926"
      },
      "geometry": {
        "type": "Point",
        "coordinates": [
          -20.163262378438663,
          -41.72171793054673
        ]
      }
    },
    {
      "type": "Feature",
      "properties": {
        "norad_id": 66962,
        "name": "STARLINK-35874",
        "group": "last-30-days",
        "lat": -42.07314416352577,
        "lon": -17.64352079141258,
        "alt_km": 382.6573597205106,
        "timestamp": "2025-12-25T22:42:15.710831+00:00",
        "meta_object_name": "STARLINK-35874",
        "meta_object_id": "2025-288D",
        "meta_epoch": "2025-12-25T18:00:02.000160",
        "meta_mean_motion": 15.63387179,
        "meta_eccentricity": 0.0001377,
        "meta_inclination": 43.0005,
        "meta_ra_of_asc_node": 87.8908,
        "meta_arg_of_pericenter": 277.8854,
        "meta_mean_anomaly": 317.3776,
        "meta_ephemeris_type": 0,
        "meta_classification_type": "U",
        "meta_norad_cat_id": 66962,
        "meta_element_set_no": 999,
        "meta_rev_at_epoch": 392,
        "meta_bstar": -0.023474,
        "meta_mean_motion_dot": -0.01960579,
        "meta_mean_motion_ddot": 0,
        "tle_line1": "1 66962U 25288D   25359.75002315 -.01960579  00000+0 -23474-1 0  9990",
        "tle_line2": "2 66962  43.0005  87.8908 0001377 277.8854 317.3776 15.63387179  3920"
      },
      "geometry": {
        "type": "Point",
        "coordinates": [
          -17.64352079141258,
          -42.07314416352577
        ]
      }
    },
    {
      "type": "Feature",
      "properties": {
        "norad_id": 66963,
        "name": "STARLINK-36133",
        "group": "last-30-days",
        "lat": -42.368869084711946,
        "lon": -15.091745705695468,
        "alt_km": 382.7071084725394,
        "timestamp": "2025-12-25T22:42:15.710845+00:00",
        "meta_object_name": "STARLINK-36133",
        "meta_object_id": "2025-288E",
        "meta_epoch": "2025-12-25T18:00:02.000160",
        "meta_mean_motion": 15.63384314,
        "meta_eccentricity": 0.0001298,
        "meta_inclination": 43.0004,
        "meta_ra_of_asc_node": 87.8861,
        "meta_arg_of_pericenter": 276.7009,
        "meta_mean_anomaly": 320.4816,
        "meta_ephemeris_type": 0,
        "meta_classification_type": "U",
        "meta_norad_cat_id": 66963,
        "meta_element_set_no": 999,
        "meta_rev_at_epoch": 392,
        "meta_bstar": -0.02344,
        "meta_mean_motion_dot": -0.01957787,
        "meta_mean_motion_ddot": 0,
        "tle_line1": "1 66963U 25288E   25359.75002315 -.01957787  00000+0 -23440-1 0  9991",
        "tle_line2": "2 66963  43.0004  87.8861 0001298 276.7009 320.4816 15.63384314  3928"
      },
      "geometry": {
        "type": "Point",
        "coordinates": [
          -15.091745705695468,
          -42.368869084711946
        ]
      }
    },
    {
      "type": "Feature",
      "properties": {
        "norad_id": 66964,
        "name": "STARLINK-36104",
        "group": "last-30-days",
        "lat": -42.60720626182578,
        "lon": -12.52235331546873,
        "alt_km": 382.6766433422281,
        "timestamp": "2025-12-25T22:42:15.710854+00:00",
        "meta_object_name": "STARLINK-36104",
        "meta_object_id": "2025-288F",
        "meta_epoch": "2025-12-25T18:00:02.000160",
        "meta_mean_motion": 15.63386141,
        "meta_eccentricity": 0.0001349,
        "meta_inclination": 43.0005,
        "meta_ra_of_asc_node": 87.8808,
        "meta_arg_of_pericenter": 277.7935,
        "meta_mean_anomaly": 321.3045,
        "meta_ephemeris_type": 0,
        "meta_classification_type": "U",
        "meta_norad_cat_id": 66964,
        "meta_element_set_no": 999,
        "meta_rev_at_epoch": 392,
        "meta_bstar": -0.023462,
        "meta_mean_motion_dot": -0.01959626,
        "meta_mean_motion_ddot": 0,
        "tle_line1": "1 66964U 25288F   25359.75002315 -.01959626  00000+0 -23462-1 0  9990",
        "tle_line2": "2 66964  43.0005  87.8808 0001349 277.7935 321.3045 15.63386141  3921"
      },
      "geometry": {
        "type": "Point",
        "coordinates": [
          -12.52235331546873,
          -42.60720626182578
        ]
      }
    },
    {
      "type": "Feature",
      "properties": {
        "norad_id": 66965,
        "name": "STARLINK-36067",
        "group": "last-30-days",
        "lat": -42.78762144504684,
        "lon": -9.928912904071684,
        "alt_km": 382.71069778554556,
        "timestamp": "2025-12-25T22:42:15.710866+00:00",
        "meta_object_name": "STARLINK-36067",
        "meta_object_id": "2025-288G",
        "meta_epoch": "2025-12-25T18:00:02.000160",
        "meta_mean_motion": 15.63387555,
        "meta_eccentricity": 0.0001282,
        "meta_inclination": 43.0004,
        "meta_ra_of_asc_node": 87.8765,
        "meta_arg_of_pericenter": 275.3863,
        "meta_mean_anomaly": 325.6307,
        "meta_ephemeris_type": 0,
        "meta_classification_type": "U",
        "meta_norad_cat_id": 66965,
        "meta_element_set_no": 999,
        "meta_rev_at_epoch": 392,
        "meta_bstar": -0.023521,
        "meta_mean_motion_dot": -0.01963981,
        "meta_mean_motion_ddot": 0,
        "tle_line1": "1 66965U 25288G   25359.75002315 -.01963981  00000+0 -23521-1 0  9996",
        "tle_line2": "2 66965  43.0004  87.8765 0001282 275.3863 325.6307 15.63387555  3921"
      },
      "geometry": {
        "type": "Point",
        "coordinates": [
          -9.928912904071684,
          -42.78762144504684
        ]
      }
    },
    {
      "type": "Feature",
      "properties": {
        "norad_id": 66966,
        "name": "STARLINK-36139",
        "group": "last-30-days",
        "lat": -42.90906034395735,
        "lon": -7.328035974524336,
        "alt_km": 382.6772307455167,
        "timestamp": "2025-12-25T22:42:15.710876+00:00",
        "meta_object_name": "STARLINK-36139",
        "meta_object_id": "2025-288H",
        "meta_epoch": "2025-12-25T18:00:02.000160",
        "meta_mean_motion": 15.63389341,
        "meta_eccentricity": 0.0001326,
        "meta_inclination": 43.0005,
        "meta_ra_of_asc_node": 87.8714,
        "meta_arg_of_pericenter": 275.4422,
        "meta_mean_anomaly": 327.4909,
        "meta_ephemeris_type": 0,
        "meta_classification_type": "U",
        "meta_norad_cat_id": 66966,
        "meta_element_set_no": 999,
        "meta_rev_at_epoch": 392,
        "meta_bstar": -0.023545,
        "meta_mean_motion_dot": -0.01965877,
        "meta_mean_motion_ddot": 0,
        "tle_line1": "1 66966U 25288H   25359.75002315 -.01965877  00000+0 -23545-1 0  9999",
        "tle_line2": "2 66966  43.0005  87.8714 0001326 275.4422 327.4909 15.63389341  3921"
      },
      "geometry": {
        "type": "Point",
        "coordinates": [
          -7.328035974524336,
          -42.90906034395735
        ]
      }
    },
    {
      "type": "Feature",
      "properties": {
        "norad_id": 66967,
        "name": "STARLINK-36136",
        "group": "last-30-days",
        "lat": -42.97101022533189,
        "lon": -4.718197908655257,
        "alt_km": 382.66937436749777,
        "timestamp": "2025-12-25T22:42:15.710886+00:00",
        "meta_object_name": "STARLINK-36136",
        "meta_object_id": "2025-288J",
        "meta_epoch": "2025-12-25T18:00:02.000160",
        "meta_mean_motion": 15.63386829,
        "meta_eccentricity": 0.0001338,
        "meta_inclination": 43.0004,
        "meta_ra_of_asc_node": 87.8666,
        "meta_arg_of_pericenter": 275.196,
        "meta_mean_anomaly": 329.6559,
        "meta_ephemeris_type": 0,
        "meta_classification_type": "U",
        "meta_norad_cat_id": 66967,
        "meta_element_set_no": 999,
        "meta_rev_at_epoch": 392,
        "meta_bstar": -0.023511,
        "meta_mean_motion_dot": -0.01963269,
        "meta_mean_motion_ddot": 0,
        "tle_line1": "1 66967U 25288J   25359.75002315 -.01963269  00000+0 -23511-1 0  9996",
        "tle_line2": "2 66967  43.0004  87.8666 0001338 275.1960 329.6559 15.63386829  3927"
      },
      "geometry": {
        "type": "Point",
        "coordinates": [
          -4.718197908655257,
          -42.97101022533189
        ]
      }
    }
  ]
}